{
  "type": "FeatureCollection",
  "features": [
    {
      "type": "Feature",
      "properties": {
        "norad_id": 32362,
        "name": "FENGYUN 1C DEB",
        "group": "fengyun-1c-debris",
        "lat": -48.9212069605974,
        "lon": -31.018152976944513,
        "alt_km": 836.4706465702666,
        "timestamp": "2025-12-12T07:43:20.800449+00:00",
        "meta_object_name": "FENGYUN 1C DEB",
        "meta_object_id": "1999-025CZF",
        "meta_epoch": "2025-12-07T15:23:15.342720",
        "meta_mean_motion": 13.65140835,
        "meta_eccentricity": 0.02754875,
        "meta_inclination": 99.8447,
        "meta_ra_of_asc_node": 312.7403,
        "meta_arg_of_pericenter": 298.1645,
        "meta_mean_anomaly": 59.1918,
        "meta_ephemeris_type": 0,
        "meta_classification_type": "U",
        "meta_norad_cat_id": 32362,
        "meta_element_set_no": 999,
        "meta_rev_at_epoch": 91060,
        "meta_bstar": 0.0060602721,
        "meta_mean_motion_dot": 6.323e-05,
        "meta_mean_motion_ddot": 0,
        "tle_line1": "1 32362U 99025CZF 25341.64114980  .00006323  00000+0  60603-2 0  9999",
        "tle_line2": "2 32362  99.8447 312.7403 0275487 298.1645  59.1918 13.65140835910602"
      },
      "geometry": {
        "type": "Point",
        "coordinates": [
          -31.018152976944513,
          -48.9212069605974
        ]
      }
    },
    {
      "type": "Feature",
      "properties": {
        "norad_id": 32363,
        "name": "FENGYUN 1C DEB",
        "group": "fengyun-1c-debris",
        "lat": 49.655173357956045,
        "lon": 134.16888054136825,
        "alt_km": 376.92117883706214,
        "timestamp": "2025-12-12T07:43:20.800459+00:00",
        "meta_object_name": "FENGYUN 1C DEB",
        "meta_object_id": "1999-025CZG",
        "meta_epoch": "2025-12-11T20:18:09.328320",
        "meta_mean_motion": 15.47453901,
        "meta_eccentricity": 0.00641038,
        "meta_inclination": 98.331,
        "meta_ra_of_asc_node": 303.6869,
        "meta_arg_of_pericenter": 144.0319,
        "meta_mean_anomaly": 216.5268,
        "meta_ephemeris_type": 0,
        "meta_classification_type": "U",
        "meta_norad_cat_id": 32363,
        "meta_element_set_no": 999,
        "meta_rev_at_epoch": 96794,
        "meta_bstar": 0.0019380601,
        "meta_mean_motion_dot": 0.00108918,
        "meta_mean_motion_ddot": 0,
        "tle_line1": "1 32363U 99025CZG 25345.84594130  .00108918  00000+0  19381-2 0  9995",
        "tle_line2": "2 32363  98.3310 303.6869 0064103 144.0319 216.5268 15.47453901967948"
      },
      "geometry": {
        "type": "Point",
        "coordinates": [
          134.16888054136825,
          49.655173357956045
        ]
      }
    },
    {
      "type": "Feature",
      "properties": {
        "norad_id": 32364,
        "name": "FENGYUN 1C DEB",
        "group": "fengyun-1c-debris",
        "lat": -15.952480471125492,
        "lon": 2.9086186299961776,
        "alt_km": 753.2227883357655,
        "timestamp": "2025-12-12T07:43:20.800471+00:00",
        "meta_object_name": "FENGYUN 1C DEB",
        "meta_object_id": "1999-025CZH",
        "meta_epoch": "2025-11-29T08:05:37.624992",
        "meta_mean_motion": 14.14317962,
        "meta_eccentricity": 0.01349396,
        "meta_inclination": 98.2918,
        "meta_ra_of_asc_node": 173.2369,
        "meta_arg_of_pericenter": 222.8285,
        "meta_mean_anomaly": 136.2316,
        "meta_ephemeris_type": 0,
        "meta_classification_type": "U",
        "meta_norad_cat_id": 32364,
        "meta_element_set_no": 999,
        "meta_rev_at_epoch": 63519,
        "meta_bstar": 0.0022712328,
        "meta_mean_motion_dot": 4.699e-05,
        "meta_mean_motion_ddot": 0,
        "tle_line1": "1 32364U 99025CZH 25333.33724103  .00004699  00000+0  22712-2 0  9995",
        "tle_line2": "2 32364  98.2918 173.2369 0134939 222.8285 136.2316 14.14317962635190"
      },
      "geometry": {
        "type": "Point",
        "coordinates": [
          2.9086186299961776,
          -15.952480471125492
        ]
      }
    },
    {
      "type": "Feature",
      "properties": {
        "norad_id": 32366,
        "name": "FENGYUN 1C DEB",
        "group": "fengyun-1c-debris",
        "lat": -70.97695705424813,
        "lon": -91.37773801684952,
        "alt_km": 759.3703717058188,
        "timestamp": "2025-12-12T07:43:20.800481+00:00",
        "meta_object_name": "FENGYUN 1C DEB",
        "meta_object_id": "1999-025CZK",
        "meta_epoch": "2025-12-08T14:12:00.516096",
        "meta_mean_motion": 14.13792516,
        "meta_eccentricity": 0.0135685,
        "meta_inclination": 96.7753,
        "meta_ra_of_asc_node": 105.9605,
        "meta_arg_of_pericenter": 279.4938,
        "meta_mean_anomaly": 79.0927,
        "meta_ephemeris_type": 0,
        "meta_classification_type": "U",
        "meta_norad_cat_id": 32366,
        "meta_element_set_no": 999,
        "meta_rev_at_epoch": 93145,
        "meta_bstar": 0.0026243,
        "meta_mean_motion_dot": 5.396e-05,
        "meta_mean_motion_ddot": 0,
        "tle_line1": "1 32366U 99025CZK 25342.59167264  .00005396  00000+0  26243-2 0  9992",
        "tle_line2": "2 32366  96.7753 105.9605 0135685 279.4938  79.0927 14.13792516931450"
      },
      "geometry": {
        "type": "Point",
        "coordinates": [
          -91.37773801684952,
          -70.97695705424813
        ]
      }
    },
    {
      "type": "Feature",
      "properties": {
        "norad_id": 32372,
        "name": "FENGYUN 1C DEB",
        "group": "fengyun-1c-debris",
        "lat": 54.386913477391474,
        "lon": 57.876895963863994,
        "alt_km": 1067.6369883265488,
        "timestamp": "2025-12-12T07:43:20.800493+00:00",
        "meta_object_name": "FENGYUN 1C DEB",
        "meta_object_id": "1999-025CZR",
        "meta_epoch": "2025-12-11T11:21:44.110080",
        "meta_mean_motion": 13.35367723,
        "meta_eccentricity": 0.04586798,
        "meta_inclination": 97.3163,
        "meta_ra_of_asc_node": 226.9338,
        "meta_arg_of_pericenter": 43.4714,
        "meta_mean_anomaly": 320.164,
        "meta_ephemeris_type": 0,
        "meta_classification_type": "U",
        "meta_norad_cat_id": 32372,
        "meta_element_set_no": 999,
        "meta_rev_at_epoch": 60123,
        "meta_bstar": 0.003543376,
        "meta_mean_motion_dot": 3.249e-05,
        "meta_mean_motion_ddot": 0,
        "tle_line1": "1 32372U 99025CZR 25345.47342720  .00003249  00000+0  35434-2 0  9998",
        "tle_line2": "2 32372  97.3163 226.9338 0458679  43.4714 320.1640 13.35367723601231"
      },
      "geometry": {
        "type": "Point",
        "coordinates": [
          57.876895963863994,
          54.386913477391474
        ]
      }
    },
    {
      "type": "Feature",
      "properties": {
        "norad_id": 32409,
        "name": "FENGYUN 1C DEB",
        "group": "fengyun-1c-debris",
        "lat": -53.596433224891804,
        "lon": 163.31584755110296,
        "alt_km": 672.2209750331303,
        "timestamp": "2025-12-12T07:43:20.800504+00:00",
        "meta_object_name": "FENGYUN 1C DEB",
        "meta_object_id": "1999-025CZV",
        "meta_epoch": "2025-12-07T05:07:54.004800",
        "meta_mean_motion": 14.7602828,
        "meta_eccentricity": 0.00392582,
        "meta_inclination": 99.5677,
        "meta_ra_of_asc_node": 144.053,
        "meta_arg_of_pericenter": 169.8692,
        "meta_mean_anomaly": 6.8268,
        "meta_ephemeris_type": 0,
        "meta_classification_type": "U",
        "meta_norad_cat_id": 32409,
        "meta_element_set_no": 999,
        "meta_rev_at_epoch": 58757,
        "meta_bstar": 0.00306852,
        "meta_mean_motion_dot": 0.00021404,
        "meta_mean_motion_ddot": 0,
        "tle_line1": "1 32409U 99025CZV 25341.21381950  .00021404  00000+0  30685-2 0  9991",
        "tle_line2": "2 32409  99.5677 144.0530 0039258 169.8692   6.8268 14.76028280587578"
      },
      "geometry": {
        "type": "Point",
        "coordinates": [
          163.31584755110296,
          -53.596433224891804
        ]
      }
    },
    {
      "type": "Feature",
      "properties": {
        "norad_id": 32411,
        "name": "FENGYUN 1C DEB",
        "group": "fengyun-1c-debris",
        "lat": 3.726989257144359,
        "lon": -96.24724678283482,
        "alt_km": 774.7211903852804,
        "timestamp": "2025-12-12T07:43:20.800514+00:00",
        "meta_object_name": "FENGYUN 1C DEB",
        "meta_object_id": "1999-025CZX",
        "meta_epoch": "2025-12-04T00:25:02.853696",
        "meta_mean_motion": 14.09783201,
        "meta_eccentricity": 0.0124615,
        "meta_inclination": 98.4286,
        "meta_ra_of_asc_node": 256.5257,
        "meta_arg_of_pericenter": 41.2219,
        "meta_mean_anomaly": 319.8282,
        "meta_ephemeris_type": 0,
        "meta_classification_type": "U",
        "meta_norad_cat_id": 32411,
        "meta_element_set_no": 999,
        "meta_rev_at_epoch": 65691,
        "meta_bstar": 0.00077808589,
        "meta_mean_motion_dot": 1.43e-05,
        "meta_mean_motion_ddot": 0,
        "tle_line1": "1 32411U 99025CZX 25338.01739414  .00001430  00000+0  77809-3 0  9997",
        "tle_line2": "2 32411  98.4286 256.5257 0124615  41.2219 319.8282 14.09783201656915"
      },
      "geometry": {
        "type": "Point",
        "coordinates": [
          -96.24724678283482,
          3.726989257144359
        ]
      }
    }
  ]
}